IRIDIUM 144             
1 43249U 18030A   25081.82827495  .00000942  00000+0  32932-3 0  9991
2 43249  86.3936 119.1277 0002091  91.1143 269.0292 14.34218010365444
IRIDIUM 149             
1 43250U 18030B   25081.83462239  .00000038  00000+0  66227-5 0  9997
2 43250  86.3939 119.0975 0002097  91.7149 268.4287 14.34217253365468
IRIDIUM 157             
1 43251U 18030C   25081.85365182  .00000021  00000+0  59258-6 0  9998
2 43251  86.3942 119.1323 0002476  97.5695 262.5783 14.34217052365443
IRIDIUM 145             
1 43253U 18030E   25081.85999267  .00000023  00000+0  11790-5 0  9997
2 43253  86.3940 119.1167 0001813  91.0968 269.0435 14.34217717365438
IRIDIUM 148             
1 43255U 18030G   25081.80925272  .00000147  00000+0  45530-4 0  9994
2 43255  86.3939 119.1880 0002182  97.8178 262.3265 14.34218101365476
IRIDIUM 142             
1 43256U 18030H   25081.84730559  .00000017  00000+0 -10707-5 0  9997
2 43256  86.3938 119.0771 0001867  96.2580 263.8829 14.34219661365444
